[{"OBJECT_NAME":"OBJECT D","OBJECT_ID":"2025-234D","EPOCH":"2026-03-09T21:45:39.162528","MEAN_MOTION":15.22662806,"ECCENTRICITY":0.00034878,"INCLINATION":97.4338,"RA_OF_ASC_NODE":138.0864,"ARG_OF_PERICENTER":166.6055,"MEAN_ANOMALY":193.5275,"EPHEMERIS_TYPE":0,"CLASSIFICATION_TYPE":"U","NORAD_CAT_ID":66056,"ELEMENT_SET_NO":999,"REV_AT_EPOCH":2155,"BSTAR":0.00081390028,"MEAN_MOTION_DOT":0.00018914,"MEAN_MOTION_DDOT":0},{"OBJECT_NAME":"FGN-100-D2","OBJECT_ID":"2025-248G","EPOCH":"2026-03-09T00:05:30.712416","MEAN_MOTION":15.19697424,"ECCENTRICITY":0.00052703,"INCLINATION":45.4006,"RA_OF_ASC_NODE":298.0063,"ARG_OF_PERICENTER":203.9196,"MEAN_ANOMALY":156.1446,"EPHEMERIS_TYPE":0,"CLASSIFICATION_TYPE":"U","NORAD_CAT_ID":66299,"ELEMENT_SET_NO":999,"REV_AT_EPOCH":1927,"BSTAR":0.00030465999,"MEAN_MOTION_DOT":6.346e-5,"MEAN_MOTION_DDOT":0}]
